TIANZHOU-4              
1 52509U 22050A   22258.44470966  .00024037  00000+0  26611-3 0  9993
2 52509  41.4739  29.0391 0006120 318.8404  89.6378 15.62406801 78887
PROGRESS-MS 20          
1 52795U 22059A   22259.42846704  .00010485  00000+0  19066-3 0  9993
2 52795  51.6444 244.5554 0002587 266.8071 189.1406 15.50115780359330
SHENZHOU 14             
1 52797U 22060A   22258.44470966  .00024037  00000+0  26611-3 0  9993
2 52797  41.4739  29.0391 0006120 318.8404  89.6378 15.62406801 78886
ISS DEB                 
1 52952U 98067TP  22259.42878381  .00082491  00000+0  10825-2 0  9995
2 52952  51.6399 242.5244 0000445 267.5640  92.5302 15.57816796 11743
CSS (WENTIAN)           
1 53239U 22085A   22258.44470966  .00024037  00000+0  26611-3 0  9992
2 53239  41.4739  29.0391 0006120 318.8404  89.6378 15.62406801 78888
1998-067TQ              
1 53305U 98067TQ  22259.22657825  .00045469  00000+0  70168-3 0  9995
2 53305  51.6404 244.9126 0001178 200.1981 159.8963 15.53672954  8796
YUZGU 8                 
1 53306U 98067TR  22259.40910106  .00053751  00000+0  81012-3 0  9993
2 53306  51.6398 243.8825 0000879 171.3866 188.7140 15.54250632  8829
1998-067TS              
1 53307U 98067TS  22259.40871894  .00053530  00000+0  80685-3 0  9994
2 53307  51.6395 243.8780 0001424 161.4483 198.6559 15.54250277  8851
YUZGU 9 (RS3S)          
1 53308U 98067TT  22259.40877792  .00052445  00000+0  79227-3 0  9992
2 53308  51.6399 243.8800 0001183 157.0337 203.0707 15.54197273  8885
YUZGU 7 (RS1S)          
1 53309U 98067TU  22259.40659614  .00054037  00000+0  81220-3 0  9999
2 53309  51.6393 243.8639 0000729 205.7092 154.3862 15.54323398  8838
YUZGU 11 (RS5S)         
1 53310U 98067TV  22259.40846281  .00052913  00000+0  79930-3 0  9995
2 53310  51.6398 243.8787 0000578 193.4275 166.6700 15.54195144  8863
YUZGU 12 (RS6S)         
1 53311U 98067TW  22259.40252715  .00053121  00000+0  79351-3 0  9998
2 53311  51.6390 243.8363 0001553 142.4354 217.6745 15.54500245  8882
TSIOLKOVSKY-RYAZAN 1 (*)
1 53312U 98067TX  22259.40474773  .00051735  00000+0  77758-3 0  9997
2 53312  51.6396 243.8526 0000784 222.8823 137.2107 15.54343159  8821
TSIOLKOVSKY-RYAZAN 2 (*)
1 53313U 98067TY  22259.40322716  .00053449  00000+0  80140-3 0  9990
2 53313  51.6396 243.8429 0000292 218.5270 141.5700 15.54395173  8871
YUZGU 10 (RS4S)         
1 53321U 98067TZ  22259.40906214  .00052680  00000+0  79457-3 0  9995
2 53321  51.6401 243.8841 0000918 165.7042 194.3975 15.54239018  8875
YUZGU UA                
1 53322U 98067UA  22259.40791426  .00053328  00000+0  80258-3 0  9994
2 53322  51.6398 243.8743 0001065 156.8235 203.2804 15.54293813  8820
HSU-SAT1                
1 53462U 98067UB  22259.43727999  .00040573  00000+0  64400-3 0  9995
2 53462  51.6395 244.0666 0005156 265.8714  94.1687 15.52933985  5458
FUTABA                  
1 53463U 98067UC  22259.43281647  .00047862  00000+0  74675-3 0  9994
2 53463  51.6394 244.0368 0004956 266.6590  93.3833 15.53336890  5452
TUMNANOSAT              
1 53464U 98067UD  22259.23546292  .00052525  00000+0  80755-3 0  9991
2 53464  51.6395 244.9692 0004827 266.2528  93.7910 15.53702783  5422
1998-067UE              
1 53767U 98067UE  22257.79445881  .00034525  00000+0  58173-3 0  9997
2 53767  51.6413 252.5962 0003354 305.0520  55.0155 15.51350713  1307
CLICK-A                 
1 53768U 98067UF  22257.40865726  .00031316  00000+0  53165-3 0  9991
2 53768  51.6409 254.5194 0001333 328.9266  31.1645 15.51191540  1252
BEAVERCUBE              
1 53769U 98067UG  22259.34072084  .00032827  00000+0  55124-3 0  9999
2 53769  51.6416 244.9237 0001392 327.2498  32.8405 15.51475102  1550
1998-067UH              
1 53770U 98067UH  22257.21407978  .00055607  00000+0  92093-3 0  9996
2 53770  51.6411 255.4701 0002998 298.2473  61.8214 15.51618817  1229
1998-067UJ              
1 53771U 98067UJ  22256.89180023  .00064812  00000+0  10696-2 0  9995
2 53771  51.6409 257.0684 0003121 301.0078  59.0604 15.51651644  1168
ISS DEB                 
1 53772U 98067UK  22254.25285730  .00041009  00000+0  70752-3 0  9998
2 53772  51.6403 270.1930 0002389 221.1622 138.9187 15.50604324   765
